start=new Date('2022-09-18T00:00:00.000Z').valueOf();
sats=[{"EPOCH":"2022-09-17T22:06:35.268192","INCLINATION":"53.0549","MEAN_ANOMALY":"280.3775","RCS_SIZE":"LARGE","COUNTRY_CODE":"US","PERIAPSIS":"546.322","SITE":"AFETR","DECAY_DATE":null,"TLE_LINE2":"2 47841  53.0549 167.3533 0001273  79.7358 280.3775 15.06403256 85649","GP_ID":"212868940","MEAN_MOTION":"15.06403256","LAUNCH_DATE":"2021-03-11","MEAN_MOTION_DDOT":"0.0000000000000","REV_AT_EPOCH":"8564","CLASSIFICATION_TYPE":"U","SEMIMAJOR_AXIS":"6925.339","APOAPSIS":"548.085","PERIOD":"95.592","EPHEMERIS_TYPE":"0","TIME_SYSTEM":"UTC","FILE":"3576621","MEAN_ELEMENT_THEORY":"SGP4","OBJECT_TYPE":"PAYLOAD","BSTAR":"0.00002512900000","ELEMENT_SET_NO":"999","RA_OF_ASC_NODE":"167.3533","NORAD_CAT_ID":"47841","CENTER_NAME":"EARTH","ARG_OF_PERICENTER":"79.7358","OBJECT_NAME":"STARLINK-2433","MEAN_MOTION_DOT":"0.00000093","REF_FRAME":"TEME","TLE_LINE1":"1 47841U 21018BG  22260.92124153  .00000093  00000-0  25129-4 0  9990","OBJECT_ID":"2021-018BG","ECCENTRICITY":"0.00012730"},{"BSTAR":"0.00001103200000","ELEMENT_SET_NO":"999","OBJECT_TYPE":"PAYLOAD","NORAD_CAT_ID":"47842","CENTER_NAME":"EARTH","RA_OF_ASC_NODE":"197.7043","EPHEMERIS_TYPE":"0","PERIOD":"95.593","TIME_SYSTEM":"UTC","MEAN_ELEMENT_THEORY":"SGP4","FILE":"3576621","OBJECT_ID":"2021-018BH","REF_FRAME":"TEME","TLE_LINE1":"1 47842U 21018BH  22260.84108299 -.00000117  00000-0  11032-4 0  9991","ECCENTRICITY":"0.00014840","MEAN_MOTION_DOT":"-0.00000117","ARG_OF_PERICENTER":"65.5864","OBJECT_NAME":"STARLINK-2434","PERIAPSIS":"546.212","SITE":"AFETR","DECAY_DATE":null,"COUNTRY_CODE":"US","TLE_LINE2":"2 47842  53.0551 197.7043 0001484  65.5864 294.5279 15.06391441 85261","INCLINATION":"53.0551","MEAN_ANOMALY":"294.5279","EPOCH":"2022-09-17T20:11:09.570336","RCS_SIZE":"LARGE","CLASSIFICATION_TYPE":"U","SEMIMAJOR_AXIS":"6925.375","APOAPSIS":"548.268","MEAN_MOTION":"15.06391441","GP_ID":"212869190","REV_AT_EPOCH":"8526","LAUNCH_DATE":"2021-03-11","MEAN_MOTION_DDOT":"0.0000000000000"},{"LAUNCH_DATE":"2021-03-11","REV_AT_EPOCH":"8525","MEAN_MOTION_DDOT":"0.0000000000000","MEAN_MOTION":"15.06385720","GP_ID":"212869939","APOAPSIS":"548.241","CLASSIFICATION_TYPE":"U","SEMIMAJOR_AXIS":"6925.392","RCS_SIZE":"LARGE","INCLINATION":"53.0539","MEAN_ANOMALY":"273.8718","EPOCH":"2022-09-17T13:09:51.352992","TLE_LINE2":"2 47843  53.0539 194.0269 0001421  86.2433 273.8718 15.06385720 85251","PERIAPSIS":"546.273","DECAY_DATE":null,"SITE":"AFETR","COUNTRY_CODE":"US","MEAN_MOTION_DOT":"-0.00001533","ARG_OF_PERICENTER":"86.2433","OBJECT_NAME":"STARLINK-2435","ECCENTRICITY":"0.00014210","OBJECT_ID":"2021-018BJ","REF_FRAME":"TEME","TLE_LINE1":"1 47843U 21018BJ  22260.54851103 -.00001533  00000-0 -84089-4 0  9994","TIME_SYSTEM":"UTC","MEAN_ELEMENT_THEORY":"SGP4","FILE":"3576621","EPHEMERIS_TYPE":"0","PERIOD":"95.593","NORAD_CAT_ID":"47843","CENTER_NAME":"EARTH","RA_OF_ASC_NODE":"194.0269","ELEMENT_SET_NO":"999","BSTAR":"-0.00008408900000","OBJECT_TYPE":"PAYLOAD"},{"TLE_LINE2":"2 47844  53.0545 187.8384 0001387  79.9936 280.1209 15.06399265 85340","SITE":"AFETR","DECAY_DATE":null,"PERIAPSIS":"546.255","COUNTRY_CODE":"US","RCS_SIZE":"LARGE","MEAN_ANOMALY":"280.1209","INCLINATION":"53.0545","EPOCH":"2022-09-17T19:30:00.324864","APOAPSIS":"548.176","SEMIMAJOR_AXIS":"6925.351","CLASSIFICATION_TYPE":"U","REV_AT_EPOCH":"8534","LAUNCH_DATE":"2021-03-11","MEAN_MOTION_DDOT":"0.0000000000000","MEAN_MOTION":"15.06399265","GP_ID":"212869662","CENTER_NAME":"EARTH","NORAD_CAT_ID":"47844","RA_OF_ASC_NODE":"187.8384","ELEMENT_SET_NO":"999","BSTAR":"0.00011375000000","OBJECT_TYPE":"PAYLOAD","MEAN_ELEMENT_THEORY":"SGP4","FILE":"3576621","TIME_SYSTEM":"UTC","EPHEMERIS_TYPE":"0","PERIOD":"95.592","ECCENTRICITY":"0.00013870","OBJECT_ID":"2021-018BK","TLE_LINE1":"1 47844U 21018BK  22260.81250376  .00001413  00000-0  11375-3 0  9992","REF_FRAME":"TEME","MEAN_MOTION_DOT":"0.00001413","ARG_OF_PERICENTER":"79.9936","OBJECT_NAME":"STARLINK-2446"},{"MEAN_ELEMENT_THEORY":"SGP4","FILE":"3576621","TIME_SYSTEM":"UTC","PERIOD":"95.593","EPHEMERIS_TYPE":"0","RA_OF_ASC_NODE":"187.7487","CENTER_NAME":"EARTH","NORAD_CAT_ID":"47845","OBJECT_TYPE":"PAYLOAD","BSTAR":"-0.00005357600000","ELEMENT_SET_NO":"999","OBJECT_NAME":"STARLINK-2453","ARG_OF_PERICENTER":"79.2975","MEAN_MOTION_DOT":"-0.00001079","ECCENTRICITY":"0.00013130","TLE_LINE1":"1 47845U 21018BL  22260.83095470 -.00001079  00000-0 -53576-4 0  9997","REF_FRAME":"TEME","OBJECT_ID":"2021-018BL","RCS_SIZE":"LARGE","EPOCH":"2022-09-17T19:56:34.486080","MEAN_ANOMALY":"280.8162","INCLINATION":"53.0540","TLE_LINE2":"2 47845  53.0540 187.7487 0001313  79.2975 280.8162 15.06386287 85350","COUNTRY_CODE":"US","SITE":"AFETR","DECAY_DATE":null,"PERIAPSIS":"546.346","LAUNCH_DATE":"2021-03-11","MEAN_MOTION_DDOT":"0.0000000000000","REV_AT_EPOCH":"8535","GP_ID":"212868440","MEAN_MOTION":"15.06386287","APOAPSIS":"548.165","SEMIMAJOR_AXIS":"6925.391","CLASSIFICATION_TYPE":"U"},{"SITE":"AFETR","DECAY_DATE":null,"PERIAPSIS":"546.255","COUNTRY_CODE":"US","TLE_LINE2":"2 47846  53.0546 187.7699 0001425  76.5089 283.6059 15.06390772 85408","INCLINATION":"53.0546","MEAN_ANOMALY":"283.6059","EPOCH":"2022-09-17T19:49:53.216832","RCS_SIZE":"LARGE","SEMIMAJOR_AXIS":"6925.377","CLASSIFICATION_TYPE":"U","APOAPSIS":"548.229","MEAN_MOTION":"15.06390772","GP_ID":"212868690","LAUNCH_DATE":"2021-03-11","MEAN_MOTION_DDOT":"0.0000000000000","REV_AT_EPOCH":"8540","BSTAR":"-0.00006615700000","ELEMENT_SET_NO":"999","OBJECT_TYPE":"PAYLOAD","CENTER_NAME":"EARTH","NORAD_CAT_ID":"47846","RA_OF_ASC_NODE":"187.7699","EPHEMERIS_TYPE":"0","PERIOD":"95.593","FILE":"3576621","MEAN_ELEMENT_THEORY":"SGP4","TIME_SYSTEM":"UTC","OBJECT_ID":"2021-018BM","TLE_LINE1":"1 47846U 21018BM  22260.82631038 -.00001266  00000-0 -66157-4 0  9990","REF_FRAME":"TEME","ECCENTRICITY":"0.00014250","MEAN_MOTION_DOT":"-0.00001266","ARG_OF_PERICENTER":"76.5089","OBJECT_NAME":"STARLINK-2456"},{"MEAN_MOTION":"15.06397491","GP_ID":"212812709","LAUNCH_DATE":"2021-03-14","REV_AT_EPOCH":"8460","MEAN_MOTION_DDOT":"0.0000000000000","CLASSIFICATION_TYPE":"U","SEMIMAJOR_AXIS":"6925.356","APOAPSIS":"548.149","INCLINATION":"53.0524","MEAN_ANOMALY":"269.6279","EPOCH":"2022-09-17T04:02:29.118912","RCS_SIZE":"LARGE","PERIAPSIS":"546.294","DECAY_DATE":null,"SITE":"AFETR","COUNTRY_CODE":"US","TLE_LINE2":"2 47860  53.0524 220.7116 0001339  90.4864 269.6279 15.06397491 84606","MEAN_MOTION_DOT":"0.00000643","OBJECT_NAME":"STARLINK-2258","ARG_OF_PERICENTER":"90.4864","OBJECT_ID":"2021-021A","REF_FRAME":"TEME","TLE_LINE1":"1 47860U 21021A   22260.16839258  .00000643  00000-0  62063-4 0  9999","ECCENTRICITY":"0.00013390","EPHEMERIS_TYPE":"0","PERIOD":"95.592","TIME_SYSTEM":"UTC","MEAN_ELEMENT_THEORY":"SGP4","FILE":"3576375","BSTAR":"0.00006206300000","ELEMENT_SET_NO":"999","OBJECT_TYPE":"PAYLOAD","NORAD_CAT_ID":"47860","CENTER_NAME":"EARTH","RA_OF_ASC_NODE":"220.7116"},{"RCS_SIZE":"LARGE","INCLINATION":"53.0539","MEAN_ANOMALY":"287.0138","EPOCH":"2022-09-17T06:03:54.461088","TLE_LINE2":"2 47861  53.0539 205.3331 0001435  73.1008 287.0138 15.06392253 84931","DECAY_DATE":null,"SITE":"AFETR","PERIAPSIS":"546.244","COUNTRY_CODE":"US","LAUNCH_DATE":"2021-03-14","MEAN_MOTION_DDOT":"0.0000000000000","REV_AT_EPOCH":"8493","MEAN_MOTION":"15.06392253","GP_ID":"212811469","APOAPSIS":"548.231","SEMIMAJOR_AXIS":"6925.372","CLASSIFICATION_TYPE":"U","MEAN_ELEMENT_THEORY":"SGP4","FILE":"3576375","TIME_SYSTEM":"UTC","EPHEMERIS_TYPE":"0","PERIOD":"95.593","CENTER_NAME":"EARTH","NORAD_CAT_ID":"47861","RA_OF_ASC_NODE":"205.3331","ELEMENT_SET_NO":"999","BSTAR":"-0.00004235400000","OBJECT_TYPE":"PAYLOAD","MEAN_MOTION_DOT":"-0.00000912","OBJECT_NAME":"STARLINK-2280","ARG_OF_PERICENTER":"73.1008","ECCENTRICITY":"0.00014350","OBJECT_ID":"2021-021B","TLE_LINE1":"1 47861U 21021B   22260.25271367 -.00000912  00000-0 -42354-4 0  9993","REF_FRAME":"TEME"},{"GP_ID":"212869192","MEAN_MOTION":"15.06393453","MEAN_MOTION_DDOT":"0.0000000000000","LAUNCH_DATE":"2021-03-14","REV_AT_EPOCH":"8504","CLASSIFICATION_TYPE":"U","SEMIMAJOR_AXIS":"6925.369","APOAPSIS":"548.078","EPOCH":"2022-09-17T13:33:04.390560","MEAN_ANOMALY":"289.0794","INCLINATION":"53.0541","RCS_SIZE":"LARGE","COUNTRY_CODE":"US","PERIAPSIS":"546.389","SITE":"AFETR","DECAY_DATE":null,"TLE_LINE2":"2 47862  53.0541 198.9556 0001219  71.0327 289.0794 15.06393453 85048","ARG_OF_PERICENTER":"71.0327","OBJECT_NAME":"STARLINK-2291","MEAN_MOTION_DOT":"-0.00002280","REF_FRAME":"TEME","TLE_LINE1":"1 47862U 21021C   22260.56463415 -.00002280  00000-0 -13424-3 0  9990","OBJECT_ID":"2021-021C","ECCENTRICITY":"0.00012190","PERIOD":"95.593","EPHEMERIS_TYPE":"0","TIME_SYSTEM":"UTC","MEAN_ELEMENT_THEORY":"SGP4","FILE":"3576621","OBJECT_TYPE":"PAYLOAD","ELEMENT_SET_NO":"999","BSTAR":"-0.00013424000000","RA_OF_ASC_NODE":"198.9556","NORAD_CAT_ID":"47862","CENTER_NAME":"EARTH"},{"ARG_OF_PERICENTER":"77.3929","OBJECT_NAME":"STARLINK-2293","MEAN_MOTION_DOT":"0.00001661","TLE_LINE1":"1 47863U 21021D   22260.85489376  .00001661  00000-0  13037-3 0  9997","REF_FRAME":"TEME","OBJECT_ID":"2021-021D","ECCENTRICITY":"0.00013940","PERIOD":"95.592","EPHEMERIS_TYPE":"0","FILE":"3576621","MEAN_ELEMENT_THEORY":"SGP4","TIME_SYSTEM":"UTC","OBJECT_TYPE":"PAYLOAD","BSTAR":"0.00013037000000","ELEMENT_SET_NO":"999","RA_OF_ASC_NODE":"207.6516","CENTER_NAME":"EARTH","NORAD_CAT_ID":"47863","GP_ID":"212869941","MEAN_MOTION":"15.06402639","MEAN_MOTION_DDOT":"0.0000000000000","LAUNCH_DATE":"2021-03-14","REV_AT_EPOCH":"8495","SEMIMAJOR_AXIS":"6925.340","CLASSIFICATION_TYPE":"U","APOAPSIS":"548.171","EPOCH":"2022-09-17T20:31:02.820864","MEAN_ANOMALY":"282.7215","INCLINATION":"53.0520","RCS_SIZE":"LARGE","COUNTRY_CODE":"US","DECAY_DATE":null,"SITE":"AFETR","PERIAPSIS":"546.240","TLE_LINE2":"2 47863  53.0520 207.6516 0001394  77.3929 282.7215 15.06402639 84955"}];
